SatCatId,ObjectName,LaunchYear,OrbitalPeriod,LaunchMass,StatusCode,Inclination,Status,UcsData,OrbitClassEstimated,LaunchSiteCountry,Owner,UseType,Purpose,LaunchVehicleClass,TLE1,TLE2,MeanMotion,Eccentricity,OrbitClass
59023,STARLINK-30996,2024,94.37,-1.0,+,43.0,Active,0,LEO,USA,USA,Unknown,Unknown,Unknown,1 59023U 24038A   25208.51442804  .00001548  00000+0  68995-4 0  9999,2 59023  43.0019 218.4212 0001418 278.2110  81.8580 15.25916596 80358,15.25916596,0.0001418,LEO
59024,STARLINK-31006,2024,94.27,-1.0,+,43.0,Active,0,LEO,USA,USA,Unknown,Unknown,Unknown,1 59024U 24038B   25208.58328165  .00000514  00000+0  28192-4 0  9997,2 59024  43.0010 167.8847 0000650 278.9544  81.1234 15.27572154 80917,15.27572154,6.5e-05,LEO
59025,STARLINK-31178,2024,94.37,-1.0,+,43.0,Active,0,LEO,USA,USA,Unknown,Unknown,Unknown,1 59025U 24038C   25208.51217245  .00007021  00000+0  27787-3 0  9995,2 59025  42.9993 218.4055 0000918 270.5539  89.5206 15.25925671 80217,15.25925671,9.18e-05,LEO
59026,STARLINK-31227,2024,94.37,-1.0,+,43.0,Active,0,LEO,USA,USA,Unknown,Unknown,Unknown,1 59026U 24038D   25208.05170527  .00010311  00000+0  40334-3 0  9995,2 59026  42.9987 220.9717 0001588 274.5989  85.4680 15.25919955 80254,15.25919955,0.0001588,LEO
59027,STARLINK-30863,2024,94.37,-1.0,+,43.0,Active,0,LEO,USA,USA,Unknown,Unknown,Unknown,1 59027U 24038E   25208.09680131  .00001005  00000+0  48254-4 0  9997,2 59027  43.0020 220.4397 0001645 268.9913  91.0750 15.25907311 80155,15.25907311,0.0001645,LEO
59028,STARLINK-31206,2024,94.27,-1.0,+,43.0,Active,0,LEO,USA,USA,Unknown,Unknown,Unknown,1 59028U 24038F   25208.54917647  .00001396  00000+0  60241-4 0  9996,2 59028  43.0024 153.4887 0000860 278.7929  81.2825 15.27580927 81093,15.27580927,8.6e-05,LEO
59029,STARLINK-31224,2024,94.37,-1.0,+,43.0,Active,0,LEO,USA,USA,Unknown,Unknown,Unknown,1 59029U 24038G   25208.04717659  .00001225  00000+0  56667-4 0  9991,2 59029  42.9981 220.9434 0001754 302.6154  57.4528 15.25907173 80258,15.25907173,0.0001754,LEO
59030,STARLINK-31186,2024,94.37,-1.0,+,43.0,Active,0,LEO,USA,USA,Unknown,Unknown,Unknown,1 59030U 24038H   25208.04491576  .00001398  00000+0  63290-4 0  9991,2 59030  43.0022 220.9293 0001596 276.5492  83.5177 15.25906755 80254,15.25906755,0.0001596,LEO
59031,STARLINK-31211,2024,94.37,-1.0,+,43.0,Active,0,LEO,USA,USA,Unknown,Unknown,Unknown,1 59031U 24038J   25208.50085862  .00001890  00000+0  82073-4 0  9997,2 59031  43.0015 218.3308 0001749 282.0860  77.9795 15.25910494 80210,15.25910494,0.0001749,LEO
59032,STARLINK-30862,2024,94.27,-1.0,+,43.0,Active,0,LEO,USA,USA,Unknown,Unknown,Unknown,1 59032U 24038K   25208.29999869  .00000808  00000+0  38897-4 0  9998,2 59032  42.9997 209.0514 0001214 270.3544  89.7169 15.27580058 80307,15.27580058,0.0001214,LEO
59033,STARLINK-31210,2024,94.27,-1.0,+,43.0,Active,0,LEO,USA,USA,Unknown,Unknown,Unknown,1 59033U 24038L   25208.08245383  .00001560  00000+0  66212-4 0  9999,2 59033  43.0028 217.7562 0001683 277.2317  82.8343 15.27575150 80358,15.2757515,0.0001683,LEO
59034,STARLINK-31231,2024,94.27,-1.0,+,43.0,Active,0,LEO,USA,USA,Unknown,Unknown,Unknown,1 59034U 24038M   25208.34014528  .00001363  00000+0  59048-4 0  9994,2 59034  43.0023 216.2482 0001231 272.4135  87.6576 15.27576696 80226,15.27576696,0.0001231,LEO
59035,STARLINK-31207,2024,94.27,-1.0,+,43.0,Active,0,LEO,USA,USA,Unknown,Unknown,Unknown,1 59035U 24038N   25208.07474479  .00001326  00000+0  57724-4 0  9998,2 59035  43.0018 217.6926 0001164 272.4498  87.6220 15.27574129 80355,15.27574129,0.0001164,LEO
59036,STARLINK-31217,2024,94.27,-1.0,P,43.0,Active,0,LEO,USA,USA,Unknown,Unknown,Unknown,1 59036U 24038P   25208.45452090  .00001085  00000+0  48927-4 0  9993,2 59036  42.9992 121.2300 0000793 252.6875 107.3890 15.27582749 81493,15.27582749,7.93e-05,LEO
59037,STARLINK-31208,2024,94.37,-1.0,+,43.01,Active,0,LEO,USA,USA,Unknown,Unknown,Unknown,1 59037U 24038Q   25208.29530869 -.00002796  00000+0 -97073-4 0  9995,2 59037  43.0053 218.4767 0001765 258.6406 101.4247 15.25903622 80367,15.25903622,0.0001765,LEO
59038,STARLINK-31235,2024,94.27,-1.0,+,43.0,Active,0,LEO,USA,USA,Unknown,Unknown,Unknown,1 59038U 24038R   25208.00679017  .00001496  00000+0  63880-4 0  9997,2 59038  43.0011 218.0407 0001080 267.8524  92.2204 15.27572251 80285,15.27572251,0.000108,LEO
59039,STARLINK-31220,2024,94.37,-1.0,+,43.0,Active,0,LEO,USA,USA,Unknown,Unknown,Unknown,1 59039U 24038S   25208.09454235  .00001196  00000+0  55557-4 0  9999,2 59039  43.0028 220.4309 0001482 272.2135  87.8546 15.25904913 80265,15.25904913,0.0001482,LEO
59040,STARLINK-31225,2024,94.27,-1.0,+,43.0,Active,0,LEO,USA,USA,Unknown,Unknown,Unknown,1 59040U 24038T   25208.51573785  .00000654  00000+0  33263-4 0  9998,2 59040  42.9980 214.9426 0000506 284.0821  75.9975 15.27593913 80258,15.27593913,5.06e-05,LEO
59041,STARLINK-31240,2024,94.27,-1.0,+,43.0,Active,0,LEO,USA,USA,Unknown,Unknown,Unknown,1 59041U 24038U   25208.35813783  .00001598  00000+0  67598-4 0  9992,2 59041  43.0014 216.3841 0001088 282.3086  77.7644 15.27577430 80334,15.2757743,0.0001088,LEO
59042,STARLINK-31202,2024,94.27,-1.0,+,43.0,Active,0,LEO,USA,USA,Unknown,Unknown,Unknown,1 59042U 24038V   25208.42723057  .00002528  00000+0  10136-3 0  9994,2 59042  43.0009 215.1863 0001374 278.6504  81.4191 15.27580381 80418,15.27580381,0.0001374,LEO
59043,STARLINK-31234,2024,94.27,-1.0,+,43.0,Active,0,LEO,USA,USA,Unknown,Unknown,Unknown,1 59043U 24038W   25208.02478373  .00002070  00000+0  84785-4 0  9993,2 59043  43.0029 218.1824 0001335 266.9185  93.1514 15.27561354 80174,15.27561354,0.0001335,LEO
59044,STARLINK-31153,2024,94.27,-1.0,+,43.0,Active,0,LEO,USA,USA,Unknown,Unknown,Unknown,1 59044U 24038X   25208.46063330  .00002658  00000+0  10608-3 0  9999,2 59044  43.0012 215.4272 0001069 281.6248  78.4483 15.27582425 80243,15.27582425,0.0001069,LEO
59045,STARLINK-31241,2024,94.27,-1.0,+,43.0,Active,0,LEO,USA,USA,Unknown,Unknown,Unknown,1 59045U 24038Y   25208.29018537  .00001762  00000+0  73579-4 0  9992,2 59045  43.0024 216.7330 0001384 189.3065 170.7761 15.27557037 80388,15.27557037,0.0001384,LEO
59046,STARLINK-31205,2024,94.27,-1.0,+,43.0,Active,0,LEO,USA,USA,Unknown,Unknown,Unknown,1 59046U 24038Z   25208.08631273  .00000466  00000+0  26464-4 0  9999,2 59046  43.0029 217.7842 0001602 275.8082  84.2587 15.27571835 80293,15.27571835,0.0001602,LEO
59051,METEOR-M2 4,2024,101.24,-1.0,+,98.65,Active,0,LEO,Russia,Russia/USSR,Unknown,Unknown,Unknown,1 59051U 24039A   25208.54915125  .00000018  00000+0  27772-4 0  9994,2 59051  98.6521 167.8028 0007795  37.3656 322.8063 14.22372721 73110,14.22372721,0.0007795,LEO
59064,ZORKIY-2M 2,2024,92.29,-1.0,+,97.43,Active,0,LEO,Russia,Russia/USSR,Unknown,Unknown,Unknown,1 59064U 24039P   25208.60900549  .00047592  00000+0  58111-3 0  9997,2 59064  97.4267 183.3135 0010050 168.0460 192.1037 15.60255899 79094,15.60255899,0.001005,LEO
59065,PARS 1,2024,93.68,-1.0,+,97.44,Active,0,LEO,Russia,Iran,Unknown,Unknown,Unknown,1 59065U 24039Q   25208.55896722  .00008394  00000+0  23216-3 0  9994,2 59065  97.4428 177.1654 0010764 195.4180 164.6738 15.37220362 78638,15.37220362,0.0010764,LEO
59066,SITRO-AIS 25,2024,96.68,-1.0,+,95.38,Active,0,LEO,Russia,Russia/USSR,Unknown,Unknown,Unknown,1 59066U 24039R   25208.56428835  .00002975  00000+0  25133-3 0  9991,2 59066  95.3788  12.6647 0155471  20.9726 339.7780 14.89511340 76335,14.8951134,0.0155471,LEO
59067,SITRO-AIS 26,2024,96.69,-1.0,+,95.38,Active,0,LEO,Russia,Russia/USSR,Unknown,Unknown,Unknown,1 59067U 24039S   25208.59493514  .00003433  00000+0  29061-3 0  9995,2 59067  95.3789  12.6385 0155646  21.1393 339.6167 14.89361935 76334,14.89361935,0.0155646,LEO
59068,SITRO-AIS 27,2024,96.66,-1.0,+,95.38,Active,0,LEO,Russia,Russia/USSR,Unknown,Unknown,Unknown,1 59068U 24039T   25208.57943451  .00003257  00000+0  27402-3 0  9995,2 59068  95.3789  12.7688 0154891  20.4449 340.2882 14.89691859 76341,14.89691859,0.0154891,LEO
59069,HULIANWAN GAOGUI-01 (HG-01),2024,1436.14,-1.0,+,0.05,Active,0,GSO,PRC,China,Unknown,Unknown,Unknown,1 59069U 24040A   25208.48592969  .00000148  00000+0  00000+0 0  9999,2 59069   0.0461 284.7956 0001223  99.9312 129.2374  1.00270909  4071,1.00270909,0.0001223,GEO
59071,SITRO-AIS 28,2024,96.66,-1.0,+,95.38,Active,0,LEO,Russia,Russia/USSR,Unknown,Unknown,Unknown,1 59071U 24039U   25208.56518564  .00002891  00000+0  24342-3 0  9994,2 59071  95.3790  12.7883 0154767  20.4097 340.3219 14.89731604 76343,14.89731604,0.0154767,LEO
59072,MARAFON-D GVM,2024,99.6,-1.0,+,88.99,Active,0,LEO,Russia,Russia/USSR,Unknown,Unknown,Unknown,1 59072U 24039V   25208.51839543  .00000295  00000+0  78950-4 0  9994,2 59072  88.9949 322.8446 0016607   4.0775 356.0562 14.45782995 74275,14.45782995,0.0016607,LEO
59074,STARLINK-31265,2024,94.27,-1.0,+,43.0,Active,0,LEO,USA,USA,Unknown,Unknown,Unknown,1 59074U 24041A   25208.51329271  .00001302  00000+0  56835-4 0  9999,2 59074  42.9993 142.3871 0000763 270.9997  89.0767 15.27579051 79834,15.27579051,7.63e-05,LEO
59075,STARLINK-31276,2024,94.27,-1.0,+,43.0,Active,0,LEO,USA,USA,Unknown,Unknown,Unknown,1 59075U 24041B   25208.54656215  .00003466  00000+0  13547-3 0  9999,2 59075  43.0009 141.7822 0001219 280.8652  79.2062 15.27564235 79892,15.27564235,0.0001219,LEO
59076,STARLINK-31259,2024,94.27,-1.0,+,43.0,Active,0,LEO,USA,USA,Unknown,Unknown,Unknown,1 59076U 24041C   25208.22347623  .00001993  00000+0  81937-4 0  9997,2 59076  43.0013 143.6562 0001503 268.9161  91.1518 15.27576943 78749,15.27576943,0.0001503,LEO
59077,STARLINK-31281,2024,94.27,-1.0,+,43.0,Active,0,LEO,USA,USA,Unknown,Unknown,Unknown,1 59077U 24041D   25208.16195026  .00000308  00000+0  20700-4 0  9999,2 59077  43.0017 144.0543 0001257 270.6797  89.3911 15.27575578 79839,15.27575578,0.0001257,LEO
